{"type": "FeatureCollection", "features": [ {"type": "Feature", "properties": {"norad_id": 66825, "name": "STARLINK-35476", "group": "last-30-days", "lat": 60.17084928139817, "lon": -26.4417176784641, "alt_km": 339.16512858844817, "timestamp": "2025-12-14T18:52:54.243672+00:00", "meta": {"OBJECT_NAME": "STARLINK-35476", "OBJECT_ID": "2025-280E", "EPOCH": "2025-12-13T16:30:56.327616", "MEAN_MOTION": 15.7706754, "ECCENTRICITY": 0.00046688, "INCLINATION": 69.9934, "RA_OF_ASC_NODE": 196.1307, "ARG_OF_PERICENTER": 280.3772, "MEAN_ANOMALY": 79.6901, "EPHEMERIS_TYPE": 0, "CLASSIFICATION_TYPE": "U", "NORAD_CAT_ID": 66825, "ELEMENT_SET_NO": 999, "REV_AT_EPOCH": 307, "BSTAR": -0.0039943465, "MEAN_MOTION_DOT": -0.00608447, "MEAN_MOTION_DDOT": 0}, "tle": {"line1": "1 66825U 25280E   25347.68815194 -.00608447  00000+0 -39943-2 0  9997", "line2": "2 66825  69.9934 196.1307 0004668 280.3772  79.6901 15.77067540  3073"}}, "geometry": {"type": "Point", "coordinates": [-26.4417176784641, 60.17084928139817]}}, {"type": "Feature", "properties": {"norad_id": 66826, "name": "STARLINK-35898", "group": "last-30-days", "lat": 57.62457985038808, "lon": -22.07058544947787, "alt_km": 335.5685883238011, "timestamp": "2025-12-14T18:52:54.243682+00:00", "meta": {"OBJECT_NAME": "STARLINK-35898", "OBJECT_ID": "2025-280F", "EPOCH": "2025-12-13T18:01:47.295840", "MEAN_MOTION": 15.77067962, "ECCENTRICITY": 0.00050994, "INCLINATION": 69.9929, "RA_OF_ASC_NODE": 195.949, "ARG_OF_PERICENTER": 227.182, "MEAN_ANOMALY": 132.8951, "EPHEMERIS_TYPE": 0, "CLASSIFICATION_TYPE": "U", "NORAD_CAT_ID": 66826, "ELEMENT_SET_NO": 999, "REV_AT_EPOCH": 308, "BSTAR": -0.0020306743, "MEAN_MOTION_DOT": -0.00319857, "MEAN_MOTION_DDOT": 0}, "tle": {"line1": "1 66826U 25280F   25347.75124185 -.00319857  00000+0 -20307-2 0  9997", "line2": "2 66826  69.9929 195.9490 0005099 227.1820 132.8951 15.77067962  3086"}}, "geometry": {"type": "Point", "coordinates": [-22.07058544947787, 57.62457985038808]}}, {"type": "Feature", "properties": {"norad_id": 66827, "name": "STARLINK-35959", "group": "last-30-days", "lat": 57.20049776586276, "lon": -21.431402148406445, "alt_km": 340.46084066354615, "timestamp": "2025-12-14T18:52:54.243692+00:00", "meta": {"OBJECT_NAME": "STARLINK-35959", "OBJECT_ID": "2025-280G", "EPOCH": "2025-12-13T16:29:57.289632", "MEAN_MOTION": 15.77058622, "ECCENTRICITY": 0.00061494, "INCLINATION": 69.9897, "RA_OF_ASC_NODE": 196.1265, "ARG_OF_PERICENTER": 289.4107, "MEAN_ANOMALY": 70.6427, "EPHEMERIS_TYPE": 0, "CLASSIFICATION_TYPE": "U", "NORAD_CAT_ID": 66827, "ELEMENT_SET_NO": 999, "REV_AT_EPOCH": 307, "BSTAR": -0.0038259843, "MEAN_MOTION_DOT": -0.00584667, "MEAN_MOTION_DDOT": 0}, "tle": {"line1": "1 66827U 25280G   25347.68746863 -.00584667  00000+0 -38260-2 0  9993", "line2": "2 66827  69.9897 196.1265 0006149 289.4107  70.6427 15.77058622  3079"}}, "geometry": {"type": "Point", "coordinates": [-21.431402148406445, 57.20049776586276]}}, {"type": "Feature", "properties": {"norad_id": 66828, "name": "STARLINK-35982", "group": "last-30-days", "lat": 53.37187833640526, "lon": -16.34659766196127, "alt_km": 339.150815997019, "timestamp": "2025-12-14T18:52:54.243706+00:00", "meta": {"OBJECT_NAME": "STARLINK-35982", "OBJECT_ID": "2025-280H", "EPOCH": "2025-12-13T14:57:32.980896", "MEAN_MOTION": 15.77283377, "ECCENTRICITY": 0.00048196, "INCLINATION": 69.993, "RA_OF_ASC_NODE": 196.305, "ARG_OF_PERICENTER": 269.5547, "MEAN_ANOMALY": 90.5101, "EPHEMERIS_TYPE": 0, "CLASSIFICATION_TYPE": "U", "NORAD_CAT_ID": 66828, "ELEMENT_SET_NO": 999, "REV_AT_EPOCH": 306, "BSTAR": -0.0038335704, "MEAN_MOTION_DOT": -0.00590837, "MEAN_MOTION_DDOT": 0}, "tle": {"line1": "1 66828U 25280H   25347.62329839 -.00590837  00000+0 -38336-2 0  9998", "line2": "2 66828  69.9930 196.3050 0004819 269.5547  90.5101 15.77283377  3067"}}, "geometry": {"type": "Point", "coordinates": [-16.34659766196127, 53.37187833640526]}}, {"type": "Feature", "properties": {"norad_id": 66829, "name": "STARLINK-36084", "group": "last-30-days", "lat": 56.35533099727334, "lon": -20.1896559375404, "alt_km": 340.67271256703316, "timestamp": "2025-12-14T18:52:54.243717+00:00", "meta": {"OBJECT_NAME": "STARLINK-36084", "OBJECT_ID": "2025-280J", "EPOCH": "2025-12-13T18:00:48.254400", "MEAN_MOTION": 15.76802697, "ECCENTRICITY": 0.00054898, "INCLINATION": 69.9927, "RA_OF_ASC_NODE": 195.9462, "ARG_OF_PERICENTER": 277.77, "MEAN_ANOMALY": 82.2876, "EPHEMERIS_TYPE": 0, "CLASSIFICATION_TYPE": "U", "NORAD_CAT_ID": 66829, "ELEMENT_SET_NO": 999, "REV_AT_EPOCH": 308, "BSTAR": -0.0041544453, "MEAN_MOTION_DOT": -0.00624565, "MEAN_MOTION_DDOT": 0}, "tle": {"line1": "1 66829U 25280J   25347.75055850 -.00624565  00000+0 -41544-2 0  9993", "line2": "2 66829  69.9927 195.9462 0005489 277.7700  82.2876 15.76802697  3082"}}, "geometry": {"type": "Point", "coordinates": [-20.1896559375404, 56.35533099727334]}}, {"type": "Feature", "properties": {"norad_id": 66830, "name": "STARLINK-35881", "group": "last-30-days", "lat": 67.5134703425317, "lon": -105.26826261920304, "alt_km": 353.7703051704593, "timestamp": "2025-12-14T18:52:54.243727+00:00", "meta": {"OBJECT_NAME": "STARLINK-35881", "OBJECT_ID": "2025-280K", "EPOCH": "2025-12-13T22:35:58.233408", "MEAN_MOTION": 15.68084391, "ECCENTRICITY": 0.00287147, "INCLINATION": 69.9917, "RA_OF_ASC_NODE": 195.4072, "ARG_OF_PERICENTER": 76.4013, "MEAN_ANOMALY": 284.0377, "EPHEMERIS_TYPE": 0, "CLASSIFICATION_TYPE": "U", "NORAD_CAT_ID": 66830, "ELEMENT_SET_NO": 999, "REV_AT_EPOCH": 311, "BSTAR": -0.037632169, "MEAN_MOTION_DOT": -0.03666125, "MEAN_MOTION_DDOT": 0}, "tle": {"line1": "1 66830U 25280K   25347.94164622 -.03666125  00000+0 -37632-1 0  9997", "line2": "2 66830  69.9917 195.4072 0028714  76.4013 284.0377 15.68084391  3118"}}, "geometry": {"type": "Point", "coordinates": [-105.26826261920304, 67.5134703425317]}}, {"type": "Feature", "properties": {"norad_id": 66831, "name": "STARLINK-35788", "group": "last-30-days", "lat": 62.85925423898281, "lon": -121.62369543987546, "alt_km": 367.2013240287297, "timestamp": "2025-12-14T18:52:54.243737+00:00", "meta": {"OBJECT_NAME": "STARLINK-35788", "OBJECT_ID": "2025-280L", "EPOCH": "2025-12-13T14:56:46.344768", "MEAN_MOTION": 15.72459416, "ECCENTRICITY": 0.00168784, "INCLINATION": 69.9932, "RA_OF_ASC_NODE": 196.3022, "ARG_OF_PERICENTER": 78.8344, "MEAN_ANOMALY": 281.475, "EPHEMERIS_TYPE": 0, "CLASSIFICATION_TYPE": "U", "NORAD_CAT_ID": 66831, "ELEMENT_SET_NO": 999, "REV_AT_EPOCH": 306, "BSTAR": -0.076984788, "MEAN_MOTION_DOT": -0.08455505, "MEAN_MOTION_DDOT": 0}, "tle": {"line1": "1 66831U 25280L   25347.62275862 -.08455505  00000+0 -76985-1 0  9999", "line2": "2 66831  69.9932 196.3022 0016878  78.8344 281.4750 15.72459416  3061"}}, "geometry": {"type": "Point", "coordinates": [-121.62369543987546, 62.85925423898281]}}, {"type": "Feature", "properties": {"norad_id": 66832, "name": "STARLINK-35768", "group": "last-30-days", "lat": 26.752272309068427, "lon": 2.3832950648795124, "alt_km": 319.3297789071612, "timestamp": "2025-12-14T18:52:54.243747+00:00", "meta": {"OBJECT_NAME": "STARLINK-35768", "OBJECT_ID": "2025-280M", "EPOCH": "2025-12-13T14:55:27.560064", "MEAN_MOTION": 15.80021789, "ECCENTRICITY": 0.00151194, "INCLINATION": 69.9927, "RA_OF_ASC_NODE": 196.2997, "ARG_OF_PERICENTER": 247.1281, "MEAN_ANOMALY": 112.8324, "EPHEMERIS_TYPE": 0, "CLASSIFICATION_TYPE": "U", "NORAD_CAT_ID": 66832, "ELEMENT_SET_NO": 999, "REV_AT_EPOCH": 306, "BSTAR": 0.0077359951, "MEAN_MOTION_DOT": 0.01661345, "MEAN_MOTION_DDOT": 0}, "tle": {"line1": "1 66832U 25280M   25347.62184676  .01661345  00000+0  77360-2 0  9993", "line2": "2 66832  69.9927 196.2997 0015119 247.1281 112.8324 15.80021789  3065"}}, "geometry": {"type": "Point", "coordinates": [2.3832950648795124, 26.752272309068427]}}, {"type": "Feature", "properties": {"norad_id": 66833, "name": "STARLINK-35858", "group": "last-30-days", "lat": 44.38562825511034, "lon": -7.9020960276637515, "alt_km": 340.07456753342285, "timestamp": "2025-12-14T18:52:54.243760+00:00", "meta": {"OBJECT_NAME": "STARLINK-35858", "OBJECT_ID": "2025-280N", "EPOCH": "2025-12-13T07:19:00.808608", "MEAN_MOTION": 15.78368693, "ECCENTRICITY": 0.00051238, "INCLINATION": 69.9935, "RA_OF_ASC_NODE": 197.2021, "ARG_OF_PERICENTER": 320.7844, "MEAN_ANOMALY": 39.2984, "EPHEMERIS_TYPE": 0, "CLASSIFICATION_TYPE": "U", "NORAD_CAT_ID": 66833, "ELEMENT_SET_NO": 999, "REV_AT_EPOCH": 301, "BSTAR": -0.0044392665, "MEAN_MOTION_DOT": -0.00708761, "MEAN_MOTION_DDOT": 0}, "tle": {"line1": "1 66833U 25280N   25347.30487047 -.00708761  00000+0 -44393-2 0  9992", "line2": "2 66833  69.9935 197.2021 0005123 320.7844  39.2984 15.78368693  3015"}}, "geometry": {"type": "Point", "coordinates": [-7.9020960276637515, 44.38562825511034]}}, {"type": "Feature", "properties": {"norad_id": 66834, "name": "STARLINK-35840", "group": "last-30-days", "lat": 32.35666592730902, "lon": -0.3637085902983135, "alt_km": 331.8778705637187, "timestamp": "2025-12-14T18:52:54.243770+00:00", "meta": {"OBJECT_NAME": "STARLINK-35840", "OBJECT_ID": "2025-280P", "EPOCH": "2025-12-13T20:59:36.421440", "MEAN_MOTION": 15.78881261, "ECCENTRICITY": 0.00087169, "INCLINATION": 70.0015, "RA_OF_ASC_NODE": 195.5774, "ARG_OF_PERICENTER": 315.983, "MEAN_ANOMALY": 44.0675, "EPHEMERIS_TYPE": 0, "CLASSIFICATION_TYPE": "U", "NORAD_CAT_ID": 66834, "ELEMENT_SET_NO": 999, "REV_AT_EPOCH": 310, "BSTAR": 0.0052965953, "MEAN_MOTION_DOT": 0.0103931, "MEAN_MOTION_DDOT": 0}, "tle": {"line1": "1 66834U 25280P   25347.87472710  .01039310  00000+0  52966-2 0  9997", "line2": "2 66834  70.0015 195.5774 0008716 315.9830  44.0675 15.78881261  3108"}}, "geometry": {"type": "Point", "coordinates": [-0.3637085902983135, 32.35666592730902]}}]}